     2.10           GLONASS NAV DATA                        RINEX VERSION / TYPE
SPIDER V4,0,0,3554                      2015 03 13 03:37    PGM / RUN BY / DATE 
  2015     2    27   -1.164153218269e-008                    CORR TO SYSTEM TIME 
    16                                                      LEAP SECONDS        
                                                            END OF HEADER       
 1 15 02 26 13 45  0.0-1.559108495712D-04 0.000000000000D+00 4.860000000000D+04
    1.771816064453D+04-1.075268745422D+00-0.000000000000D+00 0.000000000000D+00
    1.563813769531D+04-7.705268859863D-01 9.313225746155D-10 1.000000000000D+00
   -9.627759277344D+03-3.230119705200D+00 1.862645149231D-09 0.000000000000D+00
 2 15 02 26 15 15  0.0 1.204730942845D-04 9.094947017729D-13 5.400000000000D+04
    2.181661621094D+04-1.410748481750D+00 0.000000000000D+00 0.000000000000D+00
    7.948270507813D+03-3.386945724487D-01 9.313225746155D-10-4.000000000000D+00
   -1.049513574219D+04-3.182851791382D+00 1.862645149231D-09 0.000000000000D+00
 3 15 02 26 16 45  0.0 3.607384860516D-05 0.000000000000D+00 5.940000000000D+04
    2.277863525391D+04-1.552448272705D+00 0.000000000000D+00 0.000000000000D+00
   -3.635673828125D+02 2.689065933228D-01 0.000000000000D+00 5.000000000000D+00
   -1.141907275391D+04-3.099060058594D+00 1.862645149231D-09 0.000000000000D+00
 4 15 02 26 23 45  0.0 1.111123710871D-04 9.094947017729D-13 8.460000000000D+04
    6.850942871094D+03-6.203298568726D-01-0.000000000000D+00 0.000000000000D+00
    2.206945117188D+04-1.350829124451D+00 0.000000000000D+00 6.000000000000D+00
    1.081902880859D+04 3.149862289429D+00-1.862645149231D-09 0.000000000000D+00
 5 15 02 26 23 45  0.0 2.945773303509D-06 0.000000000000D+00 8.574000000000D+04
    1.507861816406D+04 5.591316223145D-01-9.313225746155D-10 0.000000000000D+00
    1.954497314453D+04 6.897716522217D-01 9.313225746155D-10 1.000000000000D+00
   -6.427961425781D+03 3.416842460632D+00-0.000000000000D+00 0.000000000000D+00
 6 15 02 26 19 45  0.0 6.324425339699D-05 0.000000000000D+00 7.020000000000D+04
    1.061995898438D+04 1.777086257935D-01 9.313225746155D-10 0.000000000000D+00
   -2.276946142578D+04-5.799818038940D-01 0.000000000000D+00-4.000000000000D+00
    4.299563476563D+03-3.497681617737D+00 0.000000000000D+00 0.000000000000D+00
 9 15 02 26 23 45  0.0-3.536231815815D-06 9.094947017729D-13 8.460000000000D+04
    2.555089404297D+04 1.209707260132D-01 0.000000000000D+00 0.000000000000D+00
   -2.459873046875D+02-1.997308731079D-01-9.313225746155D-10-2.000000000000D+00
    8.544677734375D+02-3.573484420776D+00 9.313225746155D-10 0.000000000000D+00
10 15 02 26 23 45  0.0 9.075738489628D-06 0.000000000000D+00 8.460000000000D+04
    1.786750878906D+04 2.286659240723D+00 9.313225746155D-10 0.000000000000D+00
   -7.310504882813D+03-1.469173431396D-01-2.793967723846D-09-7.000000000000D+00
    1.661479101563D+04-2.526855468750D+00-0.000000000000D+00 0.000000000000D+00
11 15 02 26 23 45  0.0 1.793727278709D-06 0.000000000000D+00 8.475000000000D+04
   -1.968989257813D+02 3.180474281311D+00 9.313225746155D-10 0.000000000000D+00
   -1.059407080078D+04-3.080368041992D-03-1.862645149231D-09 0.000000000000D+00
    2.320060205078D+04 3.382301330566D-02-9.313225746155D-10 0.000000000000D+00
12 15 02 26 14 45  0.0-4.115514457226D-06 0.000000000000D+00 5.220000000000D+04
   -1.014335937500D+03-2.002350807190D+00 9.313225746155D-10 0.000000000000D+00
    1.454520458984D+04 2.056897163391D+00 2.793967723846D-09-1.000000000000D+00
    2.086007812500D+04-1.543313980103D+00-9.313225746155D-10 0.000000000000D+00
13 15 02 26 17 15  0.0-4.733819514513D-04-9.094947017729D-13 6.120000000000D+04
    2.352519531250D+03-3.025436401367D-02 1.862645149231D-09 0.000000000000D+00
    2.252752636719D+04 1.619841575623D+00 9.313225746155D-10-2.000000000000D+00
    1.171894140625D+04-3.102602005005D+00 0.000000000000D+00 0.000000000000D+00
14 15 02 26 19 45  0.0 1.362068578601D-04 3.637978807092D-12 7.020000000000D+04
    1.180367382813D+04 8.943080902100D-02 9.313225746155D-10 0.000000000000D+00
    2.250875537109D+04-3.218479156494D-01-0.000000000000D+00-7.000000000000D+00
   -1.740571777344D+03-3.601185798645D+00 9.313225746155D-10 0.000000000000D+00
15 15 02 26 21 45  0.0 3.985688090324D-05 9.094947017729D-13 7.740000000000D+04
    1.746219140625D+04-1.094296455383D+00-0.000000000000D+00 0.000000000000D+00
    1.560569140625D+04-9.034700393677D-01-0.000000000000D+00 0.000000000000D+00
   -1.023464941406D+04-3.231995582581D+00 9.313225746155D-10 0.000000000000D+00
16 15 02 26 23 15  0.0-1.954194158316D-05 9.094947017729D-13 8.280000000000D+04
    2.217881347656D+04-1.319413185120D+00-0.000000000000D+00 0.000000000000D+00
    7.699735351563D+03-3.510141372681D-01-0.000000000000D+00-1.000000000000D+00
   -9.911606933594D+03-3.242758750916D+00 9.313225746155D-10 0.000000000000D+00
17 15 02 26 21 15  0.0 1.504132524133D-04 9.094947017729D-13 7.560000000000D+04
   -6.136203125000D+03-2.645855903625D+00 0.000000000000D+00 0.000000000000D+00
    1.301747998047D+04 1.143128395081D+00-0.000000000000D+00 4.000000000000D+00
    2.108410205078D+04-1.480811119080D+00-2.793967723846D-09 0.000000000000D+00
18 15 02 26 22 45  0.0 3.955047577620D-05 1.818989403546D-12 8.100000000000D+04
   -2.022914062500D+03-1.918971061707D+00-0.000000000000D+00 0.000000000000D+00
    1.532246289063D+04 2.010863304138D+00-0.000000000000D+00-3.000000000000D+00
    2.033331298828D+04-1.701318740845D+00-2.793967723846D-09 0.000000000000D+00
19 15 02 26 23 45  0.0-1.193145290017D-04-0.000000000000D+00 8.460000000000D+04
    6.472696289063D+03-1.582356452942D+00 0.000000000000D+00 0.000000000000D+00
    9.630188964844D+03 2.679131507874D+00-9.313225746155D-10 3.000000000000D+00
    2.272228564453D+04-6.848831176758D-01-1.862645149231D-09 0.000000000000D+00
20 15 02 26 23 45  0.0-1.605581492186D-04-1.818989403546D-12 8.460000000000D+04
    1.499698095703D+04-1.459930419922D+00 9.313225746155D-10 0.000000000000D+00
   -7.538806640625D+03 2.189714431763D+00-2.793967723846D-09 2.000000000000D+00
    1.919703857422D+04 2.006594657898D+00-9.313225746155D-10 0.000000000000D+00
21 15 02 26 23 45  0.0 5.196779966354D-07 1.818989403546D-12 8.460000000000D+04
    1.493867968750D+04-5.635166168213D-01 9.313225746155D-10 0.000000000000D+00
   -1.982887060547D+04 6.077690124512D-01-2.793967723846D-09 4.000000000000D+00
    5.923892578125D+03 3.456842422485D+00 9.313225746155D-10 1.700000000000D+01
23 15 02 26 17 45  0.0 3.262795507908D-05-3.637978807092D-12 6.300000000000D+04
   -6.234907714844D+03-2.725308418274D+00 9.313225746155D-10 0.000000000000D+00
    8.817352050781D+03-1.610692977905D+00 0.000000000000D+00 3.000000000000D+00
    2.310865771484D+04-1.207056045532D-01-1.862645149231D-09 0.000000000000D+00
24 15 02 26 19 15  0.0-1.216409727931D-04-0.000000000000D+00 6.840000000000D+04
   -4.716738769531D+03-3.116488456726D+00 9.313225746155D-10 0.000000000000D+00
    1.010733203125D+04-4.217920303345D-01 0.000000000000D+00 2.000000000000D+00
    2.292436962891D+04-4.541864395142D-01-1.862645149231D-09 0.000000000000D+00
 5 15 02 27 00 15  0.0 2.946704626083D-06 0.000000000000D+00 0.000000000000D+00
    1.572062939453D+04 1.169939041138D-01-0.000000000000D+00 0.000000000000D+00
    2.008373242188D+04-7.483959197998D-02 9.313225746155D-10 1.000000000000D+00
   -1.085732421875D+02 3.559102058411D+00-9.313225746155D-10 0.000000000000D+00
11 15 02 27 00 15  0.0 1.795589923859D-06 0.000000000000D+00 0.000000000000D+00
    5.438432128906D+03 3.029161453247D+00 9.313225746155D-10 0.000000000000D+00
   -1.102238134766D+04-4.638938903809D-01-2.793967723846D-09 0.000000000000D+00
    2.236420263672D+04-9.568691253662D-01-9.313225746155D-10 0.000000000000D+00
 4 15 02 27 00 15  0.0 1.111160963774D-04 9.094947017729D-13 0.000000000000D+00
    5.181184570313D+03-1.245424270630D+00-0.000000000000D+00 0.000000000000D+00
    1.919166210938D+04-1.803089141846D+00 0.000000000000D+00 6.000000000000D+00
    1.599769775391D+04 2.566904067993D+00-1.862645149231D-09 0.000000000000D+00
 9 15 02 27 00 15  0.0-3.533437848091D-06 9.094947017729D-13 0.000000000000D+00
    2.495927734375D+04-7.705488204956D-01-0.000000000000D+00 0.000000000000D+00
   -5.521689453125D+02-9.963703155518D-02-0.000000000000D+00-2.000000000000D+00
   -5.528078125000D+03-3.472509384155D+00 9.313225746155D-10 0.000000000000D+00
10 15 02 27 00 15  0.0 9.076669812202D-06 0.000000000000D+00 0.000000000000D+00
    2.134177978516D+04 1.542898178101D+00 0.000000000000D+00 0.000000000000D+00
   -7.833493164063D+03-3.985567092896D-01-1.862645149231D-09-7.000000000000D+00
    1.148025537109D+04-3.141003608704D+00 0.000000000000D+00 0.000000000000D+00
19 15 02 27 00 15  0.0-1.193173229694D-04-0.000000000000D+00 0.000000000000D+00
    4.089426269531D+03-1.054863929749D+00 0.000000000000D+00 0.000000000000D+00
    1.444612646484D+04 2.621705055237D+00-0.000000000000D+00 3.000000000000D+00
    2.062769921875D+04-1.627354621887D+00-2.793967723846D-09 0.000000000000D+00
20 15 02 27 00 15  0.0-1.605618745089D-04-1.818989403546D-12 0.000000000000D+00
    1.250476806641D+04-1.271154403687D+00 9.313225746155D-10 0.000000000000D+00
   -3.076806152344D+03 2.734644889832D+00-1.862645149231D-09 2.000000000000D+00
    2.201976416016D+04 1.109560012817D+00-1.862645149231D-09 0.000000000000D+00
21 15 02 27 00 15  0.0 5.224719643593D-07 1.818989403546D-12 0.000000000000D+00
    1.369266845703D+04-7.779102325439D-01 9.313225746155D-10 0.000000000000D+00
   -1.799523046875D+04 1.428722381592D+00-2.793967723846D-09 4.000000000000D+00
    1.183732031250D+04 3.071043968201D+00 0.000000000000D+00 1.700000000000D+01
